[{"OBJECT_NAME":"STARLINK-2214","OBJECT_ID":"2021-041P","EPOCH":"2026-03-09T12:17:07.941408","MEAN_MOTION":15.0641417,"ECCENTRICITY":0.00012693,"INCLINATION":53.0527,"RA_OF_ASC_NODE":142.3892,"ARG_OF_PERICENTER":80.1523,"MEAN_ANOMALY":279.9609,"EPHEMERIS_TYPE":0,"CLASSIFICATION_TYPE":"U","NORAD_CAT_ID":48566,"ELEMENT_SET_NO":999,"REV_AT_EPOCH":26503,"BSTAR":0.00037377226,"MEAN_MOTION_DOT":5.292e-5,"MEAN_MOTION_DDOT":0},{"OBJECT_NAME":"CZ-6A DEB","OBJECT_ID":"2022-151VT","EPOCH":"2026-03-09T17:17:01.578624","MEAN_MOTION":15.13055612,"ECCENTRICITY":0.00307053,"INCLINATION":98.6048,"RA_OF_ASC_NODE":145.9599,"ARG_OF_PERICENTER":176.0049,"MEAN_ANOMALY":184.143,"EPHEMERIS_TYPE":0,"CLASSIFICATION_TYPE":"U","NORAD_CAT_ID":55202,"ELEMENT_SET_NO":999,"REV_AT_EPOCH":17179,"BSTAR":0.0062201193,"MEAN_MOTION_DOT":0.00112789,"MEAN_MOTION_DDOT":0}]
